satname,norad_id,inclination_deg,eccentricity,mean_motion_rev_per_day,perigee_km,apogee_km,l1,l2
STARLINK-1234,45190,53.0389,0.0004842,15.73937789,344.3988972517536,350.9121547339264,1 45190U 20012N   26154.54546943  .00078092  00000+0  53800-3 0  9996,2 45190  53.0389 261.6963 0004842 241.3543 118.6989 15.73937789349357
STARLINK-1269,45197,53.1574,0.0001809,15.34520828,461.10669445482745,463.5815805303728,1 45197U 20012V   26153.84132693  .00049234  00000+0  14531-2 0  9991,2 45197  53.1574   3.2208 0001809 117.5732 242.5455 15.34520828347966
STARLINK-1154,45198,53.0428,3.62e-05,15.63303147,377.8787209407001,378.3678741862441,1 45198U 20012W   26153.73687037  .00040372  00000+0  43513-3 0  9994,2 45198  53.0428 319.7192 0000362 247.7376 112.3599 15.63303147348514
STARLINK-1199,45201,53.1564,0.0002382,15.34433855,460.9731536856207,464.23208203957074,1 45201U 20012Z   26153.81235521  .00037281  00000+0  11078-2 0  9990,2 45201  53.1564 347.6231 0002382 199.0559 161.0355 15.34433855348206
STARLINK-1209,45206,53.0387,0.0007554,15.6535869,367.10815907542565,377.3065793484311,1 45206U 20012AE  26154.59993080  .00050137  00000+0  49581-3 0  9998,2 45206  53.0387 275.7734 0007554 223.0846 136.9578 15.65358690348312
STARLINK-1231,45212,53.0411,0.0003858,15.27454673,480.77720543629675,486.0715862093148,1 45212U 20012AL  26153.83846241  .00033150  00000+0  12247-2 0  9991,2 45212  53.0411 342.6056 0003858  65.3464 294.7935 15.27454673348219
STARLINK-1271,45217,53.1577,0.0001336,15.34659208,461.01909450359653,462.84676118831703,1 45217U 20012AR  26153.81045730  .00044830  00000+0  13191-2 0  9994,2 45217  53.1577 347.7596 0001336 205.5497 154.5440 15.34659208348208
STARLINK-1191,45222,53.157,0.0003679,15.38582776,447.78714004954145,452.81150349510244,1 45222U 20012AW  26153.73862588  .00039859  00000+0  10356-2 0  9994,2 45222  53.1570 321.2443 0003679 181.5594 178.5400 15.38582776348579
STARLINK-1212,45223,53.0405,0.0001712,15.66702779,367.1910299321362,369.50102572086416,1 45223U 20012AX  26154.87659697  .00054560  00000+0  51118-3 0  9994,2 45223  53.0405 290.0601 0001712 115.0920 245.0273 15.66702779349090
STARLINK-1215,45225,53.1572,0.0001839,15.34708975,460.5271938013493,463.04291713334896,1 45225U 20012AZ  26153.74495769  .00043884  00000+0  12897-2 0  9996,2 45225  53.1572 322.3382 0001839 240.8897 119.1922 15.34708975348510
STARLINK-1221,45227,53.0636,0.000217,15.44707416,430.7600566577048,433.7157593677821,1 45227U 20012BB  26154.45441699  .00019268  00000+0  41417-3 0  9990,2 45227  53.0636 222.3082 0002170 304.6441  55.4360 15.44707416349958
STARLINK-1222,45228,53.0539,0.0001586,15.54843105,401.53331584741863,403.6841683968196,1 45228U 20012BC  26154.58128253  .00039201  00000+0  58187-3 0  9994,2 45228  53.0539 289.3661 0001586   8.5910 351.5127 15.54843105348966
STARLINK-1226,45229,53.1558,0.0002484,15.43479645,434.15640682301,437.5415950682809,1 45229U 20012BD  26153.73824911  .00063540  00000+0  13944-2 0  9999,2 45229  53.1558 318.7373 0002484 233.1066 126.9713 15.43479645348509
STARLINK-1227,45230,53.155,0.0003242,15.43717229,432.940983034463,437.3587182284127,1 45230U 20012BE  26154.59014472  .00068220  00000+0  14835-2 0  9999,2 45230  53.1550 314.8082 0003242 220.8343 139.2421 15.43717229348754
STARLINK-1246,45235,53.1562,0.0002918,15.34501526,460.40543104264634,464.3975693113498,1 45235U 20012BK  26153.84776333  .00033029  00000+0  98116-3 0  9996,2 45235  53.1562   2.8167 0002918 178.7740 181.3271 15.34501526348023
STARLINK-1270,45237,53.0405,0.000156,15.6158164,382.03309146278116,384.14259361365293,1 45237U 20012BM  26154.55881164  .00101361  00000+0  11502-2 0  9994,2 45237  53.0405 292.8586 0001560 268.2716  91.8119 15.61581640349028
STARLINK-1279,45360,53.0376,0.0007852,15.73630844,343.24831943932895,353.8118774507275,1 45360U 20019A   26151.98285978  .00083764  00000+0  58341-3 0  9992,2 45360  53.0376  49.2203 0007852  91.5329 268.6588 15.73630844343728
STARLINK-1301,45361,53.0369,0.0005408,15.75981312,338.2060295230949,345.4743568552476,1 45361U 20019B   26151.97078152  .00091429  00000+0  57474-3 0  9999,2 45361  53.0369  52.0322 0005408 114.9532 245.2050 15.75981312343698
STARLINK-1262,45366,53.1525,0.0003595,15.33537801,462.8068741511388,467.727281683161,1 45366U 20019G   26154.20663176  .00050503  00000+0  15369-2 0  9993,2 45366  53.1525 127.5611 0003595  64.6493 295.4881 15.33537801342859
STARLINK-1273,45367,53.0426,0.0005454,15.56559227,393.92843286549305,401.31943289107676,1 45367U 20019H   26153.23464541  .00094342  00000+0  12955-2 0  9998,2 45367  53.0426 108.8154 0005454  44.1456 315.9990 15.56559227343010
STARLINK-1277,45369,53.0422,0.000538,15.63458317,374.0416327398898,381.3108878079438,1 45369U 20019K   26154.00002315  .00073876  00000+0  78301-3 0  9990,2 45369  53.0422  99.3779 0005380  38.5130  76.5656 15.63458317  5952
STARLINK-1281,45370,53.1543,0.0004321,15.34464549,459.5555495305698,465.46723787240717,1 45370U 20019L   26154.22118727  .00054148  00000+0  15986-2 0  9991,2 45370  53.1543 127.1521 0004321  59.8042 300.3388 15.34464549342862
STARLINK-1300,45374,53.1571,0.0004795,15.34912057,457.90226868869195,464.4611753431045,1 45374U 20019Q   26154.23469801  .00056176  00000+0  16341-2 0  9997,2 45374  53.1571 127.0100 0004795  66.9555 293.1953 15.34912057342861
STARLINK-1302,45375,53.0452,0.0005141,15.66709442,364.85854281174215,371.7952569936224,1 45375U 20019R   26153.09194389  .00062047  00000+0  57963-3 0  9997,2 45375  53.0452 100.0305 0005141  56.3973 303.7532 15.66709442343128
STARLINK-1304,45376,53.0422,0.0005665,15.6220445,377.46149180493376,385.1199233976449,1 45376U 20019S   26154.09979856  .00053507  00000+0  59863-3 0  9991,2 45376  53.0422  96.2233 0005665  61.4148 298.7435 15.62204450343269
STARLINK-1305,45377,53.0385,0.0001761,15.70565375,356.0939986366311,358.46621254122056,1 45377U 20019T   26152.10752749  .00068602  00000+0  54659-3 0  9992,2 45377  53.0385  84.9354 0001761 167.5645 192.5415 15.70565375343252
STARLINK-1319,45379,53.0377,0.0003717,15.76657534,337.4215072960096,342.41570983541715,1 45379U 20019V   26154.82637005  .00088297  00000+0  53936-3 0  9991,2 45379  53.0377  63.3498 0003717  79.6542 280.4896 15.76657534343791
STARLINK-1266,45383,53.0453,0.0001618,15.65234729,371.4715032330196,373.65603000109695,1 45383U 20019Z   26153.10481223  .00052950  00000+0  52636-3 0  9998,2 45383  53.0453  86.1802 0001618 130.4232 229.6924 15.65234729343313
STARLINK-1267,45384,53.0435,0.0007043,15.64746419,369.21264551819786,378.72366083696306,1 45384U 20019AA  26153.19849087  .00052345  00000+0  53009-3 0  9997,2 45384  53.0435  76.9269 0007043  92.4336 267.7485 15.64746419343451
STARLINK-1272,45386,53.0403,0.0007831,15.68886813,356.8051598349102,367.3616930668177,1 45386U 20019AC  26152.15222326  .00062695  00000+0  53549-3 0  9993,2 45386  53.0403  61.0495 0007831  72.9009 287.2864 15.68886813343588
STARLINK-1274,45387,53.0202,0.0008208,15.60899639,379.50591572606027,390.6083752352815,1 45387U 20019AD  26154.00002315  .00086957  00000+0  10142-2 0  9992,2 45387  53.0202  50.8667 0008208 115.8243 235.7753 15.60899639  5907
STARLINK-1280,45388,53.0374,0.0004652,15.77069164,335.62487794599565,341.87426921405586,1 45388U 20019AE  26152.93761153  .00098962  00000+0  59227-3 0  9992,2 45388  53.0374  65.1793 0004652  93.8675 266.2877 15.77069164343585
STARLINK-1283,45389,53.0407,0.0003695,15.7025133,355.68904777742955,360.66718464831047,1 45389U 20019AF  26152.93974171  .00069058  00000+0  55728-3 0  9995,2 45389  53.0407  56.3116 0003695 101.1546 258.9886 15.70251330343725
STARLINK-1284,45390,53.0411,0.0004443,15.69189942,358.22107409140153,364.2096626059165,1 45390U 20019AG  26153.07975560  .00066812  00000+0  56358-3 0  9991,2 45390  53.0411  79.4451 0004443  31.4971 328.6310 15.69189942343408
STARLINK-1297,45395,53.0417,0.0006324,15.6780049,360.93209825524355,369.4610665702785,1 45395U 20019AM  26154.80968947  .00065490  00000+0  58465-3 0  9991,2 45395  53.0417  69.8856 0006324  46.8646 313.2897 15.67800490342876
STARLINK-1307,45397,53.0525,0.0002671,15.5613232,397.0529742022727,400.6732476615325,1 45397U 20019AP  26153.09964764  .00039314  00000+0  55651-3 0  9996,2 45397  53.0525  83.7251 0002671  79.0820 281.0491 15.56132320343179
STARLINK-1255,45399,53.035,0.0005322,15.65334001,368.6857771852956,375.87091928195605,1 45399U 20019AR  26154.25798965  .00067285  00000+0  66323-3 0  9991,2 45399  53.0350  46.2956 0005322 103.5073 256.6535 15.65334001343786
STARLINK-1260,45404,53.1569,0.0005759,15.37272845,450.2431096438859,458.1125698763217,1 45404U 20019AW  26154.14276494  .00049130  00000+0  13274-2 0  9999,2 45404  53.1569  90.3296 0005759  69.7845 290.3778 15.37272845343080
STARLINK-1263,45405,53.1573,0.0004129,15.34558558,459.40762462957537,465.05640136050624,1 45405U 20019AX  26154.10447862  .00047580  00000+0  14031-2 0  9994,2 45405  53.1573  91.6715 0004129  86.9541 273.1934 15.34558558343066
STARLINK-1265,45406,53.1561,0.0004954,15.37682324,449.5807116298447,456.348967332402,1 45406U 20019AY  26154.13632174  .00050122  00000+0  13362-2 0  9992,2 45406  53.1561  90.3593 0004954  64.6872 295.4645 15.37682324343080
STARLINK-1278,45408,53.04,0.0006768,15.6836892,359.00435700342223,368.12992773052974,1 45408U 20019BA  26152.22609866  .00059636  00000+0  52093-3 0  9998,2 45408  53.0400  81.5936 0006768  60.4529 299.7161 15.68368920343025
STARLINK-1296,45412,53.1548,0.0005763,15.37792924,448.7007260380333,456.573876497675,1 45412U 20019BE  26153.13678558  .00058868  00000+0  15599-2 0  9993,2 45412  53.1548  94.7562 0005763  56.7724 303.3831 15.37792924342930
STARLINK-1309,45414,53.0609,0.0006259,15.67468207,361.92829950155283,370.3707974029039,1 45414U 20019BG  26152.17859394  .00054089  00000+0  49102-3 0  9996,2 45414  53.0609  75.7076 0006259  36.2877 323.8562 15.67468207343083
